NORAD_CAT_ID,OBJECT_NAME,OBJECT_TYPE,EPOCH,MEAN_MOTION,ECCENTRICITY,INCLINATION,RA_OF_ASC_NODE,ARG_OF_PERICENTER,MEAN_ANOMALY,BSTAR,MEAN_MOTION_DOT,MEAN_MOTION_DDOT,TLE_LINE0,TLE_LINE1,TLE_LINE2,SEMIMAJOR_AXIS,PERIOD,APOGEE,PERIGEE,DECAYED
51788.0,STARLINK-3641,PAYLOAD,2024-04-29 19:37:07,15.08844559,0.0001298,53.2147,156.6973,74.0512,286.0623,0.00057268,8.839e-05,0.0,0 STARLINK-3641,1 51788U 22017W   24120.81744235  .00008839  00000-0  57268-3 0  9993,2 51788  53.2147 156.6973 0001298  74.0512 286.0623 15.08844559121436,6917.866,95.437,540.629,538.834,0.0
51788.0,STARLINK-3641,PAYLOAD,2024-04-30 08:20:11,15.08858082,0.0001305,53.2144,154.3181,73.7578,286.3558,0.00061805,9.567e-05,0.0,0 STARLINK-3641,1 51788U 22017W   24121.34735683  .00009567  00000-0  61805-3 0  9990,2 51788  53.2144 154.3181 0001305  73.7578 286.3558 15.08858082121511,6917.825,95.436,540.593,538.787,0.0
51788.0,STARLINK-3641,PAYLOAD,2024-04-30 19:27:53,15.08857194,0.0001265,53.2142,152.2363,73.393,286.7201,0.00043507,6.646e-05,0.0,0 STARLINK-3641,1 51788U 22017W   24121.81103332  .00006646  00000-0  43507-3 0  9996,2 51788  53.2142 152.2363 0001265  73.3930 286.7201 15.08857194121580,6917.828,95.436,540.568,538.818,0.0
51788.0,STARLINK-3641,PAYLOAD,2024-05-01 11:21:44,15.08850889,0.0001421,53.2152,149.2641,71.3814,288.7332,0.00015696,2.212e-05,0.0,0 STARLINK-3641,1 51788U 22017W   24122.47343220  .00002212  00000-0  15696-3 0  9994,2 51788  53.2152 149.2641 0001421  71.3814 288.7332 15.08850889121681,6917.847,95.437,540.695,538.729,0.0
51788.0,STARLINK-3641,PAYLOAD,2024-05-01 19:18:40,15.08846822,0.0001409,53.215,147.7763,72.1296,287.985,6.9101e-05,8.12e-06,0.0,0 STARLINK-3641,1 51788U 22017W   24122.80463266  .00000812  00000-0  69101-4 0  9999,2 51788  53.2150 147.7763 0001409  72.1296 287.9850 15.08846822121730,6917.86,95.437,540.699,538.75,0.0
51788.0,STARLINK-3641,PAYLOAD,2024-05-02 04:50:59,15.08841586,0.0001492,53.2151,145.993,71.9904,288.125,-4.5539e-05,-1.013e-05,0.0,0 STARLINK-3641,1 51788U 22017W   24123.20207557 -.00001013  00000-0 -45539-4 0  9998,2 51788  53.2151 145.9930 0001492  71.9904 288.1250 15.08841586121797,6917.876,95.437,540.773,538.708,0.0
51788.0,STARLINK-3641,PAYLOAD,2024-05-02 11:12:31,15.08841368,0.0001422,53.2162,144.8006,85.4304,274.6851,-2.3132e-06,-3.25e-06,0.0,0 STARLINK-3641,1 51788U 22017W   24123.46703663 -.00000325  00000-0 -23132-5 0  9996,2 51788  53.2162 144.8006 0001422  85.4304 274.6851 15.08841368121838,6917.876,95.437,540.725,538.757,0.0
51788.0,STARLINK-3641,PAYLOAD,2024-05-03 11:03:18,15.08859562,0.0001363,53.2159,140.3418,84.4292,275.6856,-0.00010382,-1.941e-05,0.0,0 STARLINK-3641,1 51788U 22017W   24124.46062546 -.00001941  00000-0 -10382-3 0  9991,2 51788  53.2159 140.3418 0001363  84.4292 275.6856 15.08859562121988,6917.821,95.436,540.628,538.743,0.0
51788.0,STARLINK-3641,PAYLOAD,2024-05-04 04:32:33,15.08830546,0.0001096,53.2141,137.0692,79.719,280.3926,5.6385e-05,6.09e-06,0.0,0 STARLINK-3641,1 51788U 22017W   24125.18928157  .00000609  00000-0  56385-4 0  9992,2 51788  53.2141 137.0692 0001096  79.7190 280.3926 15.08830546122098,6917.909,95.438,540.532,539.016,0.0
51788.0,STARLINK-3641,PAYLOAD,2024-05-05 04:23:20,15.08841353,0.0001221,53.2157,132.6095,84.2943,275.8189,4.2706e-05,3.92e-06,0.0,0 STARLINK-3641,1 51788U 22017W   24126.18288025  .00000392  00000-0  42706-4 0  9997,2 51788  53.2157 132.6095 0001221  84.2943 275.8189 15.08841353122245,6917.876,95.437,540.586,538.897,0.0
51788.0,STARLINK-3641,PAYLOAD,2024-05-05 09:09:30,15.08843962,0.0001265,53.2159,131.7164,80.2994,279.8141,5.5956e-05,6.03e-06,0.0,0 STARLINK-3641,1 51788U 22017W   24126.38159876  .00000603  00000-0  55956-4 0  9996,2 51788  53.2159 131.7164 0001265  80.2994 279.8141 15.08843962122277,6917.868,95.437,540.608,538.858,0.0
51788.0,STARLINK-3641,PAYLOAD,2024-05-06 09:00:17,15.08844155,0.0001304,53.2164,127.2574,88.35,271.7642,0.00020925,3.044e-05,0.0,0 STARLINK-3641,1 51788U 22017W   24127.37519926  .00003044  00000-0  20925-3 0  9991,2 51788  53.2164 127.2574 0001304  88.3500 271.7642 15.08844155122423,6917.868,95.437,540.635,538.831,0.0
51788.0,STARLINK-3641,PAYLOAD,2024-05-06 16:57:12,15.08843903,0.0001345,53.2154,125.771,89.9507,270.1639,0.00017082,2.432e-05,0.0,0 STARLINK-3641,1 51788U 22017W   24127.70639953  .00002432  00000-0  17082-3 0  9991,2 51788  53.2154 125.7710 0001345  89.9507 270.1639 15.08843903122470,6917.868,95.437,540.664,538.803,0.0
51788.0,STARLINK-3641,PAYLOAD,2024-05-07 08:51:03,15.08849749,0.0001385,53.2156,122.7962,89.9075,270.2076,0.00019297,2.785e-05,0.0,0 STARLINK-3641,1 51788U 22017W   24128.36879540  .00002785  00000-0  19297-3 0  9993,2 51788  53.2156 122.7962 0001385  89.9075 270.2076 15.08849749122573,6917.851,95.437,540.674,538.757,0.0
51788.0,STARLINK-3641,PAYLOAD,2024-05-07 16:48:00,15.08839248,0.0001418,53.2159,121.3077,85.948,274.1674,3.44e-05,2.6e-06,0.0,0 STARLINK-3641,1 51788U 22017W   24128.70000061  .00000260  00000-0  34400-4 0  9995,2 51788  53.2159 121.3077 0001418  85.9480 274.1674 15.08839248122627,6917.883,95.438,540.729,538.767,0.0
51788.0,STARLINK-3641,PAYLOAD,2024-05-08 08:41:52,15.08836538,0.0001376,53.2162,118.3348,88.0649,272.0501,4.6726e-06,-2.14e-06,0.0,0 STARLINK-3641,1 51788U 22017W   24129.36240763 -.00000214  00000-0  46726-5 0  9998,2 51788  53.2162 118.3348 0001376  88.0649 272.0501 15.08836538122728,6917.891,95.438,540.708,538.804,0.0
51788.0,STARLINK-3641,PAYLOAD,2024-05-08 16:38:47,15.08841939,0.0001391,53.2167,116.849,87.8462,272.2689,5.4909e-05,5.86e-06,0.0,0 STARLINK-3641,1 51788U 22017W   24129.69360327  .00000586  00000-0  54909-4 0  9995,2 51788  53.2167 116.8490 0001391  87.8462 272.2689 15.08841939122776,6917.874,95.437,540.702,538.777,0.0
51788.0,STARLINK-3641,PAYLOAD,2024-05-09 05:21:51,15.08850166,0.0001369,53.2162,114.4698,86.55,273.5649,0.0001009,1.319e-05,0.0,0 STARLINK-3641,1 51788U 22017W   24130.22351566  .00001319  00000-0  10090-3 0  9998,2 51788  53.2162 114.4698 0001369  86.5500 273.5649 15.08850166122850,6917.849,95.437,540.661,538.767,0.0
51788.0,STARLINK-3641,PAYLOAD,2024-05-09 08:32:37,15.08850371,0.0001406,53.2158,113.8759,84.4714,275.6438,0.00013345,1.837e-05,0.0,0 STARLINK-3641,1 51788U 22017W   24130.35599455  .00001837  00000-0  13345-3 0  9994,2 51788  53.2158 113.8759 0001406  84.4714 275.6438 15.08850371122871,6917.849,95.437,540.686,538.741,0.0
51788.0,STARLINK-3641,PAYLOAD,2024-05-09 22:51:06,15.08842374,0.0001433,53.2146,111.2003,82.4116,277.7038,0.00019003,2.738e-05,0.0,0 STARLINK-3641,1 51788U 22017W   24130.95215982  .00002738  00000-0  19003-3 0  9998,2 51788  53.2146 111.2003 0001433  82.4116 277.7038 15.08842374122969,6917.873,95.437,540.729,538.747,0.0
51788.0,STARLINK-3641,PAYLOAD,2024-05-10 05:12:39,15.08845465,0.0001493,53.2161,110.0084,93.611,266.5053,0.0002023,2.934e-05,0.0,0 STARLINK-3641,1 51788U 22017W   24131.21711838  .00002934  00000-0  20230-3 0  9991,2 51788  53.2161 110.0084 0001493  93.6110 266.5053 15.08845465123009,6917.864,95.437,540.762,538.696,0.0
51788.0,STARLINK-3641,PAYLOAD,2024-05-10 08:23:25,15.08842607,0.0001456,53.2169,109.4135,97.5404,262.5753,0.00024278,3.578e-05,0.0,0 STARLINK-3641,1 51788U 22017W   24131.34959947  .00003578  00000-0  24278-3 0  9991,2 51788  53.2169 109.4135 0001456  97.5404 262.5753 15.08842607123024,6917.872,95.437,540.745,538.73,0.0
51788.0,STARLINK-3641,PAYLOAD,2024-05-10 22:41:54,15.08841513,0.0001455,53.2145,106.7386,88.5239,271.592,1.0327e-05,-1.24e-06,0.0,0 STARLINK-3641,1 51788U 22017W   24131.94576413 -.00000124  00000-0  10327-4 0  9996,2 51788  53.2145 106.7386 0001455  88.5239 271.5920 15.08841513123112,6917.876,95.437,540.747,538.734,0.0
51788.0,STARLINK-3641,PAYLOAD,2024-05-11 03:28:03,15.08842839,0.0001622,53.2171,105.8469,86.0855,274.0322,3.988e-05,3.47e-06,0.0,0 STARLINK-3641,1 51788U 22017W   24132.14448263  .00000347  00000-0  39880-4 0  9991,2 51788  53.2171 105.8469 0001622  86.0855 274.0322 15.08842839123145,6917.872,95.437,540.859,538.615,0.0
51788.0,STARLINK-3641,PAYLOAD,2024-05-11 08:14:11,15.08874898,0.0001937,53.217,104.9515,113.0387,247.081,0.00062484,9.68e-05,0.0,0 STARLINK-3641,1 51788U 22017W   24132.34319158  .00009680  00000-0  62484-3 0  9997,2 51788  53.2170 104.9515 0001937 113.0387 247.0810 15.08874898123171,6917.774,95.435,540.979,538.299,0.0
51788.0,STARLINK-3641,PAYLOAD,2024-05-11 14:35:43,15.08880895,0.0002203,53.2156,103.7659,103.397,256.7268,0.00074673,0.00011629,0.0,0 STARLINK-3641,1 51788U 22017W   24132.60814406  .00011629  00000-0  74673-3 0  9991,2 51788  53.2156 103.7659 0002203 103.3970 256.7268 15.08880895123211,6917.755,95.435,541.144,538.096,0.0
51788.0,STARLINK-3641,PAYLOAD,2024-05-12 04:54:13,15.08807784,0.0001513,53.2156,101.0869,73.496,286.6199,-0.00083069,-0.00013472,0.0,0 STARLINK-3641,1 51788U 22017W   24133.20432519 -.00013472  00000-0 -83069-3 0  9998,2 51788  53.2156 101.0869 0001513  73.4960 286.6199 15.08807784123305,6917.979,95.44,540.891,538.797,0.0
51788.0,STARLINK-3641,PAYLOAD,2024-05-12 14:26:33,15.08792833,0.0001559,53.2164,99.3059,77.7597,282.357,-0.00078945,-0.00012814,0.0,0 STARLINK-3641,1 51788U 22017W   24133.60178118 -.00012814  00000-0 -78945-3 0  9990,2 51788  53.2164  99.3059 0001559  77.7597 282.3570 15.08792833123367,6918.025,95.441,540.968,538.811,0.0
51788.0,STARLINK-3641,PAYLOAD,2024-05-12 20:48:07,15.08787157,0.0001463,53.2164,98.1168,79.2773,280.8383,-0.00069141,-0.00011259,0.0,0 STARLINK-3641,1 51788U 22017W   24133.86675165 -.00011259  00000-0 -69141-3 0  9992,2 51788  53.2164  98.1168 0001463  79.2773 280.8383 15.08787157123405,6918.042,95.441,540.919,538.895,0.0
51788.0,STARLINK-3641,PAYLOAD,2024-05-12 22:23:30,15.08787366,0.0001637,53.2173,97.8187,84.626,275.4919,-0.00078707,-0.00012774,0.0,0 STARLINK-3641,1 51788U 22017W   24133.93299459 -.00012774  00000-0 -78707-3 0  9999,2 51788  53.2173  97.8187 0001637  84.6260 275.4919 15.08787366123414,6918.041,95.441,541.039,538.774,0.0
